IRIDIUM 39              
1 25042U 97069D   25118.34515171  .00001501  00000+0  38841-3 0  9991
2 25042  86.3931 232.4833 0019999 111.6535 248.6802 14.49151947442004
IRIDIUM 38              
1 25043U 97069E   25118.07093895  .00001077  00000+0  34951-3 0  9992
2 25043  86.3939 254.2336 0000462 150.3573 209.7651 14.38067309439013
IRIDIUM 42              
1 25077U 97077A   25117.80665138  .00000974  00000+0  32665-3 0  9998
2 25077  86.3933 260.4564 0001403  89.5528 270.5830 14.36305490433962
IRIDIUM 44              
1 25078U 97077B   25118.38340373  .00000936  00000+0  28984-3 0  9991
2 25078  86.3962 242.2607 0002667 138.9665 221.1735 14.40196662436564
IRIDIUM 45              
1 25104U 97082A   25118.13447291  .00028659  00000+0  10719-2 0  9995
2 25104  86.3587  72.1561 0122587 157.4523 203.2175 15.20316652444682
IRIDIUM 24              
1 25105U 97082B   25118.48980023  .00001011  00000+0  30193-3 0  9991
2 25105  86.3864 101.3839 0009342 236.3956 123.6353 14.42041804436304
IRIDIUM 51              
1 25262U 98018A   25118.19326834  .00058819  00000+0  14329-2 0  9997
2 25262  86.3829  80.5167 0098047  82.6530 278.5852 15.35758434439563
IRIDIUM 57              
1 25273U 98019B   25117.85726544  .00000657  00000+0  22032-3 0  9992
2 25273  86.3997 166.3419 0002208  93.6900 266.4549 14.35856896417566
